norad_id,name,regime,epoch,line1,line2,inclination,eccentricity,mean_motion,raan,arg_pericenter,mean_anomaly
44333,AT&T T-16,GEO,24124.63212465,1 44333U 19034A   24124.63212465 -.00000117  00000-0  00000-0 0    10\,2 44333   0.0198 268.1948 0001091  20.0566  60.4679  1.00269542 17868,0.0198,0.0001091,1.00269542,268.1948,20.0566,60.4679
44333,AT&T T-16,GEO,24125.19493733,1 44333U 19034A   24125.19493733 -.00000118  00000-0  00000+0 0  3519\,2 44333   0.0217 269.3594 0000953  16.4662 266.0637  1.00272327 17865,0.0217,9.53e-05,1.00272327,269.3594,16.4662,266.0637
44333,AT&T T-16,GEO,24126.43260323,1 44333U 19034A   24126.43260323 -.00000116  00000-0  00000-0 0    15\,2 44333   0.0160 278.0545 0001291 346.1388  14.4806  1.00268096 17882,0.016,0.0001291,1.00268096,278.0545,346.1388,14.4806
44333,AT&T T-16,GEO,24126.63729861,1 44333U 19034A   24126.63729861 -.00000116  00000-0  00000-0 0    14\,2 44333   0.0140 274.6873 0001485  20.7687  57.1163  1.00267715 17885,0.014,0.0001485,1.00267715,274.6873,20.7687,57.1163
44333,AT&T T-16,GEO,24126.96959314,1 44333U 19034A   24126.96959314 -.00000116  00000-0  00000+0 0  3537\,2 44333   0.0142 278.6663 0001339  11.9817 181.8762  1.00270145 17884,0.0142,0.0001339,1.00270145,278.6663,11.9817,181.8762
44333,AT&T T-16,GEO,24127.60461343,1 44333U 19034A   24127.60461343 -.00000116  00000-0  00000-0 0    10\,2 44333   0.0144 279.7988 0001226 346.3806  75.5788  1.00271058 17898,0.0144,0.0001226,1.00271058,279.7988,346.3806,75.5788
44333,AT&T T-16,GEO,24128.55813223,1 44333U 19034A   24128.55813223 -.00000115  00000-0  00000-0 0    12\,2 44333   0.0158 283.8823 0001378 343.2691  58.8034  1.00269079 17903,0.0158,0.0001378,1.00269079,283.8823,343.2691,58.8034
44333,AT&T T-16,GEO,24129.62794476,1 44333U 19034A   24129.62794476 -.00000116  00000-0  00000+0 0  3562\,2 44333   0.0178 283.7813 0001412 342.1945  86.1561  1.00269139 17919,0.0178,0.0001412,1.00269139,283.7813,342.1945,86.1561
44333,AT&T T-16,GEO,24130.30458462,1 44333U 19034A   24130.30458462 -.00000116  00000-0  00000-0 0    19\,2 44333   0.0192 285.8279 0001407 339.6250 330.9301  1.00269205 17925,0.0192,0.0001407,1.00269205,285.8279,339.625,330.9301
44333,AT&T T-16,GEO,24130.52862215,1 44333U 19034A   24130.52862215 -.00000117  00000-0  00000-0 0    19\,2 44333   0.0171 287.8120 0001166 349.1378  40.3148  1.00275311 17924,0.0171,0.0001166,1.00275311,287.812,349.1378,40.3148
44333,AT&T T-16,GEO,24131.77467913,1 44333U 19034A   24131.77467913 -.00000119  00000-0  00000+0 0  3589\,2 44333   0.0168 290.1569 0001567 349.5906 127.3306  1.00272415 17935,0.0168,0.0001567,1.00272415,290.1569,349.5906,127.3306
44333,AT&T T-16,GEO,24134.60118670,1 44333U 19034A   24134.60118670 -.00000119  00000-0  00000-0 0    13\,2 44333   0.0155 284.2371 0001493 348.7663  74.4073  1.00270105 17965,0.0155,0.0001493,1.00270105,284.2371,348.7663,74.4073
44333,AT&T T-16,GEO,24135.45049582,1 44333U 19034A   24135.45049582 -.00000117  00000-0  00000-0 0    10\,2 44333   0.0162 288.3744 0001474 345.2232  20.3960  1.00269954 17971,0.0162,0.0001474,1.00269954,288.3744,345.2232,20.396
44333,AT&T T-16,GEO,24135.64089453,1 44333U 19034A   24135.64089453 -.00000117  00000-0  00000-0 0    12\,2 44333   0.0160 283.5000 0001472 351.6323  87.5914  1.00269907 17973,0.016,0.0001472,1.00269907,283.5,351.6323,87.5914
44333,AT&T T-16,GEO,24137.11160444,1 44333U 19034A   24137.11160444 -.00000113  00000-0  00000+0 0  3610\,2 44333   0.0185 298.4752 0000810 337.3175 257.8357  1.00270381 17982,0.0185,8.1e-05,1.00270381,298.4752,337.3175,257.8357
44333,AT&T T-16,GEO,24137.40127219,1 44333U 19034A   24137.40127219 -.00000112  00000-0  00000-0 0    16\,2 44333   0.0180 297.4548 0000775 337.9249   2.8139  1.00270545 17996,0.018,7.75e-05,1.00270545,297.4548,337.9249,2.8139
44333,AT&T T-16,GEO,24139.74007596,1 44333U 19034A   24139.74007596 -.00000103  00000-0  00000+0 0  3629\,2 44333   0.0184 291.8216 0001174  24.1633  86.5068  1.00269983 18014,0.0184,0.0001174,1.00269983,291.8216,24.1633,86.5068
44333,AT&T T-16,GEO,24139.95327294,1 44333U 19034A   24139.95327294 -.00000102  00000-0  00000-0 0    12\,2 44333   0.0183 293.6455 0001146  22.7941 163.0123  1.00270285 18024,0.0183,0.0001146,1.00270285,293.6455,22.7941,163.0123
44333,AT&T T-16,GEO,24140.57966352,1 44333U 19034A   24140.57966352 -.00000100  00000-0  00000-0 0    14\,2 44333   0.0174 292.5006 0001010  19.7226  33.3559  1.00273697 18028,0.0174,0.000101,1.00273697,292.5006,19.7226,33.3559
44333,AT&T T-16,GEO,24141.90257708,1 44333U 19034A   24141.90257708 -.00000096  00000-0  00000+0 0  3645\,2 44333   0.0159 298.9269 0000862 354.6726 169.5279  1.00269210 18030,0.0159,8.62e-05,1.0026921,298.9269,354.6726,169.5279
44333,AT&T T-16,GEO,24142.52791333,1 44333U 19034A   24142.52791333 -.00000094  00000-0  00000-0 0    18\,2 44333   0.0167 302.3854 0000816 352.5637  33.9112  1.00269342 18043,0.0167,8.16e-05,1.00269342,302.3854,352.5637,33.9112
44333,AT&T T-16,GEO,24142.86991118,1 44333U 19034A   24142.86991118 -.00000094  00000-0  00000-0 0    18\,2 44333   0.0178 307.5461 0000788 345.5688 159.1979  1.00269214 18053,0.0178,7.88e-05,1.00269214,307.5461,345.5688,159.1979
44333,AT&T T-16,GEO,24143.15615194,1 44333U 19034A   24143.15615194 -.00000094  00000-0  00000+0 0  3650\,2 44333   0.0180 305.0649 0000775 348.1123 262.4619  1.00269157 18040,0.018,7.75e-05,1.00269157,305.0649,348.1123,262.4619
44333,AT&T T-16,GEO,24143.54748628,1 44333U 19034A   24143.54748628 -.00000093  00000-0  00000-0 0    19\,2 44333   0.0170 312.3648 0000743 340.5154  44.0217  1.00269150 18056,0.017,7.43e-05,1.0026915,312.3648,340.5154,44.0217
44333,AT&T T-16,GEO,24143.65716821,1 44333U 19034A   24143.65716821 -.00000093  00000-0  00000-0 0    11\,2 44333   0.0189 308.2287 0000727 343.6944  84.5712  1.00269111 18058,0.0189,7.27e-05,1.00269111,308.2287,343.6944,84.5712
44333,AT&T T-16,GEO,24144.33561913,1 44333U 19034A   24144.33561913 -.00000093  00000-0  00000-0 0    17\,2 44333   0.0190 316.5434 0000616 330.9721 333.8844  1.00269109 18069,0.019,6.16e-05,1.00269109,316.5434,330.9721,333.8844
44333,AT&T T-16,GEO,24145.30327081,1 44333U 19034A   24145.30327081 -.00000095  00000-0  00000-0 0    13\,2 44333   0.0174 314.7078 0000685 337.3784 318.6308  1.00269433 18078,0.0174,6.85e-05,1.00269433,314.7078,337.3784,318.6308
44333,AT&T T-16,GEO,24145.66129278,1 44333U 19034A   24145.66129278 -.00000096  00000-0  00000-0 0    11\,2 44333   0.0165 312.0564 0000886  16.3607  51.5476  1.00273080 18072,0.0165,8.86e-05,1.0027308,312.0564,16.3607,51.5476
44333,AT&T T-16,GEO,24146.39146552,1 44333U 19034A   24146.39146552 -.00000098  00000-0  00000-0 0    18\,2 44333   0.0157 309.2454 0000727 355.0722 339.2277  1.00271080 18088,0.0157,7.27e-05,1.0027108,309.2454,355.0722,339.2277
44333,AT&T T-16,GEO,24146.66332872,1 44333U 19034A   24146.66332872 -.00000099  00000-0  00000+0 0  3709\,2 44333   0.0140 300.2150 0000997  26.9840  54.4909  1.00272238 18082,0.014,9.97e-05,1.00272238,300.215,26.984,54.4909
44333,AT&T T-16,GEO,24147.52217295,1 44333U 19034A   24147.52217295 -.00000102  00000-0  00000-0 0    13\,2 44333   0.0123 292.6332 0001010  37.0702   2.0208  1.00274150 18093,0.0123,0.000101,1.0027415,292.6332,37.0702,2.0208
44333,AT&T T-16,GEO,24147.90118976,1 44333U 19034A   24147.90118976 -.00000102  00000-0  00000-0 0    11\,2 44333   0.0134 297.6633 0001228  25.3566 145.5192  1.00269231 18104,0.0134,0.0001228,1.00269231,297.6633,25.3566,145.5192
44333,AT&T T-16,GEO,24148.02324789,1 44333U 19034A   24148.02324789 -.00000103  00000-0  00000+0 0  3716\,2 44333   0.0117 292.0116 0001127  27.4619 193.1282  1.00270903 18095,0.0117,0.0001127,1.00270903,292.0116,27.4619,193.1282
44333,AT&T T-16,GEO,24148.45268132,1 44333U 19034A   24148.45268132 -.00000104  00000-0  00000-0 0    14\,2 44333   0.0125 292.9629 0000902   7.4747   7.1805  1.00267861 18108,0.0125,9.02e-05,1.00267861,292.9629,7.4747,7.1805
44333,AT&T T-16,GEO,24148.81046812,1 44333U 19034A   24148.81046812 -.00000105  00000-0  00000-0 0    14\,2 44333   0.0135 296.4925 0000891   3.6527 136.6247  1.00268134 18100,0.0135,8.91e-05,1.00268134,296.4925,3.6527,136.6247
44333,AT&T T-16,GEO,24149.50952100,1 44333U 19034A   24149.50952100 -.00000107  00000-0  00000-0 0    19\,2 44333   0.0140 299.7340 0000916   0.0998  29.2748  1.00267947 18119,0.014,9.16e-05,1.00267947,299.734,0.0998,29.2748
44333,AT&T T-16,GEO,24149.81246560,1 44333U 19034A   24149.81246560 -.00000108  00000-0  00000+0 0  3731\,2 44333   0.0159 304.1144 0000935 354.9796 139.3693  1.00267898 18117,0.0159,9.35e-05,1.00267898,304.1144,354.9796,139.3693
44333,AT&T T-16,GEO,24149.88416642,1 44333U 19034A   24149.88416642 -.00000108  00000-0  00000-0 0    17\,2 44333   0.0156 304.2163 0000933 354.2893 165.8396  1.00267879 18129,0.0156,9.33e-05,1.00267879,304.2163,354.2893,165.8396
44333,AT&T T-16,GEO,24150.44355189,1 44333U 19034A   24150.44355189 -.00000109  00000-0  00000-0 0    10\,2 44333   0.0165 307.9677 0000919 348.2767  10.0234  1.00267872 18121,0.0165,9.19e-05,1.00267872,307.9677,348.2767,10.0234
44333,AT&T T-16,GEO,24150.61299516,1 44333U 19034A   24150.61299516 -.00000110  00000-0  00000-0 0    12\,2 44333   0.0165 306.8918 0000924 348.8783  71.6621  1.00267844 18129,0.0165,9.24e-05,1.00267844,306.8918,348.8783,71.6621
44333,AT&T T-16,GEO,24151.60195340,1 44333U 19034A   24151.60195340 -.00000112  00000-0  00000-0 0    14\,2 44333   0.0188 308.2471 0000926   2.3496  53.8385  1.00274360 18130,0.0188,9.26e-05,1.0027436,308.2471,2.3496,53.8385
44333,AT&T T-16,GEO,24152.40743916,1 44333U 19034A   24152.40743916 -.00000112  00000-0  00000-0 0    11\,2 44333   0.0191 308.2876 0000981 353.0160 353.9030  1.00271313 18145,0.0191,9.81e-05,1.00271313,308.2876,353.016,353.903
44333,AT&T T-16,GEO,24152.72233385,1 44333U 19034A   24152.72233385 -.00000112  00000-0  00000-0 0    10\,2 44333   0.0197 307.0794 0001116   3.5685  98.2356  1.00273132 18148,0.0197,0.0001116,1.00273132,307.0794,3.5685,98.2356
